STARLINK-3225           
1 49737U 21115P   26068.53896833  .00000901  00000+0  74690-4 0  9996
2 49737  53.2171 149.7979 0001669  90.6292 269.4892 15.08829140235511
DISKSAT B               
1 67220U 25305B   26068.81497770  .00012481  00000+0  82401-3 0  9990
2 67220  45.0018 250.2098 0003783 311.4052  48.6498 15.07484556 12311
